[{"OBJECT_NAME":"IRIDIUM 113","OBJECT_ID":"2017-039A","EPOCH":"2026-04-05T04:37:31.142784","MEAN_MOTION":14.34218929,"ECCENTRICITY":0.00017851,"INCLINATION":86.4017,"RA_OF_ASC_NODE":352.6888,"ARG_OF_PERICENTER":79.8774,"MEAN_ANOMALY":280.2623,"EPHEMERIS_TYPE":0,"CLASSIFICATION_TYPE":"U","NORAD_CAT_ID":42803,"ELEMENT_SET_NO":999,"REV_AT_EPOCH":46072,"BSTAR":-6.9142304e-5,"MEAN_MOTION_DOT":-1.74e-6,"MEAN_MOTION_DDOT":0},{"OBJECT_NAME":"NORSAT 2","OBJECT_ID":"2017-042D","EPOCH":"2026-04-05T04:59:32.509824","MEAN_MOTION":15.20448439,"ECCENTRICITY":0.00087698,"INCLINATION":97.4003,"RA_OF_ASC_NODE":269.9018,"ARG_OF_PERICENTER":310.9869,"MEAN_ANOMALY":49.0607,"EPHEMERIS_TYPE":0,"CLASSIFICATION_TYPE":"U","NORAD_CAT_ID":42828,"ELEMENT_SET_NO":999,"REV_AT_EPOCH":47664,"BSTAR":0.00069217098,"MEAN_MOTION_DOT":0.00015069,"MEAN_MOTION_DDOT":0},{"OBJECT_NAME":"TECHNOSAT","OBJECT_ID":"2017-042E","EPOCH":"2026-04-05T05:35:55.430016","MEAN_MOTION":15.04521665,"ECCENTRICITY":0.00171816,"INCLINATION":97.4206,"RA_OF_ASC_NODE":255.7255,"ARG_OF_PERICENTER":349.338,"MEAN_ANOMALY":10.748,"EPHEMERIS_TYPE":0,"CLASSIFICATION_TYPE":"U","NORAD_CAT_ID":42829,"ELEMENT_SET_NO":999,"REV_AT_EPOCH":47573,"BSTAR":0.00035461046,"MEAN_MOTION_DOT":4.925e-5,"MEAN_MOTION_DDOT":0},{"OBJECT_NAME":"FLYING LAPTOP","OBJECT_ID":"2017-042G","EPOCH":"2026-04-05T07:36:51.880896","MEAN_MOTION":15.00706187,"ECCENTRICITY":0.00197062,"INCLINATION":97.4366,"RA_OF_ASC_NODE":253.8228,"ARG_OF_PERICENTER":12.786,"MEAN_ANOMALY":347.386,"EPHEMERIS_TYPE":0,"CLASSIFICATION_TYPE":"U","NORAD_CAT_ID":42831,"ELEMENT_SET_NO":999,"REV_AT_EPOCH":47552,"BSTAR":0.00026723356,"MEAN_MOTION_DOT":3.341e-5,"MEAN_MOTION_DDOT":0},{"OBJECT_NAME":"WNISAT 1R","OBJECT_ID":"2017-042L","EPOCH":"2026-04-05T04:33:05.194080","MEAN_MOTION":15.01381982,"ECCENTRICITY":0.00134017,"INCLINATION":97.4647,"RA_OF_ASC_NODE":253.9939,"ARG_OF_PERICENTER":49.0566,"MEAN_ANOMALY":311.1817,"EPHEMERIS_TYPE":0,"CLASSIFICATION_TYPE":"U","NORAD_CAT_ID":42835,"ELEMENT_SET_NO":999,"REV_AT_EPOCH":47555,"BSTAR":0.00038582696,"MEAN_MOTION_DOT":4.927e-5,"MEAN_MOTION_DDOT":0},{"OBJECT_NAME":"LEMUR-2-GREENBERG","OBJECT_ID":"2017-042N","EPOCH":"2026-04-04T23:25:12.337536","MEAN_MOTION":15.2906982,"ECCENTRICITY":0.00080658,"INCLINATION":97.3795,"RA_OF_ASC_NODE":276.0731,"ARG_OF_PERICENTER":261.5526,"MEAN_ANOMALY":98.48,"EPHEMERIS_TYPE":0,"CLASSIFICATION_TYPE":"U","NORAD_CAT_ID":42837,"ELEMENT_SET_NO":999,"REV_AT_EPOCH":47719,"BSTAR":0.00074928462,"MEAN_MOTION_DOT":0.00021127,"MEAN_MOTION_DDOT":0},{"OBJECT_NAME":"LEMUR-2-FURIAUS","OBJECT_ID":"2017-042R","EPOCH":"2026-04-05T04:11:36.583008","MEAN_MOTION":15.27674191,"ECCENTRICITY":0.00068227,"INCLINATION":97.3757,"RA_OF_ASC_NODE":274.3997,"ARG_OF_PERICENTER":322.3487,"MEAN_ANOMALY":37.7274,"EPHEMERIS_TYPE":0,"CLASSIFICATION_TYPE":"U","NORAD_CAT_ID":42840,"ELEMENT_SET_NO":999,"REV_AT_EPOCH":47705,"BSTAR":0.0010554247,"MEAN_MOTION_DOT":0.00028569,"MEAN_MOTION_DDOT":0},{"OBJECT_NAME":"CORVUS BC2","OBJECT_ID":"2017-042X","EPOCH":"2026-04-05T04:14:36.316608","MEAN_MOTION":15.05842703,"ECCENTRICITY":0.00132339,"INCLINATION":97.3995,"RA_OF_ASC_NODE":259.4197,"ARG_OF_PERICENTER":10.0688,"MEAN_ANOMALY":350.0802,"EPHEMERIS_TYPE":0,"CLASSIFICATION_TYPE":"U","NORAD_CAT_ID":42846,"ELEMENT_SET_NO":999,"REV_AT_EPOCH":47607,"BSTAR":0.00036355806,"MEAN_MOTION_DOT":5.228e-5,"MEAN_MOTION_DDOT":0},{"OBJECT_NAME":"CORVUS BC1","OBJECT_ID":"2017-042Y","EPOCH":"2026-04-04T23:31:50.591424","MEAN_MOTION":15.06026567,"ECCENTRICITY":0.00113769,"INCLINATION":97.4029,"RA_OF_ASC_NODE":259.9962,"ARG_OF_PERICENTER":347.7669,"MEAN_ANOMALY":12.328,"EPHEMERIS_TYPE":0,"CLASSIFICATION_TYPE":"U","NORAD_CAT_ID":42847,"ELEMENT_SET_NO":999,"REV_AT_EPOCH":47607,"BSTAR":0.00030629619,"MEAN_MOTION_DOT":4.414e-5,"MEAN_MOTION_DDOT":0},{"OBJECT_NAME":"VRSS-2","OBJECT_ID":"2017-060A","EPOCH":"2026-04-05T07:01:35.743584","MEAN_MOTION":14.81083209,"ECCENTRICITY":0.00166196,"INCLINATION":97.6596,"RA_OF_ASC_NODE":136.2785,"ARG_OF_PERICENTER":343.7613,"MEAN_ANOMALY":16.3065,"EPHEMERIS_TYPE":0,"CLASSIFICATION_TYPE":"U","NORAD_CAT_ID":42954,"ELEMENT_SET_NO":999,"REV_AT_EPOCH":45766,"BSTAR":0.00027515246,"MEAN_MOTION_DOT":2.09e-5,"MEAN_MOTION_DDOT":0},{"OBJECT_NAME":"MOHAMMED VI-A","OBJECT_ID":"2017-070A","EPOCH":"2026-04-05T06:03:55.960128","MEAN_MOTION":14.77095924,"ECCENTRICITY":0.00011752,"INCLINATION":97.939,"RA_OF_ASC_NODE":168.5814,"ARG_OF_PERICENTER":80.5407,"MEAN_ANOMALY":279.5936,"EPHEMERIS_TYPE":0,"CLASSIFICATION_TYPE":"U","NORAD_CAT_ID":43005,"ELEMENT_SET_NO":999,"REV_AT_EPOCH":45321,"BSTAR":0.00023808267,"MEAN_MOTION_DOT":1.631e-5,"MEAN_MOTION_DDOT":0},{"OBJECT_NAME":"FENGYUN 3D","OBJECT_ID":"2017-072A","EPOCH":"2026-04-05T06:37:26.996160","MEAN_MOTION":14.19723968,"ECCENTRICITY":4.2e-5,"INCLINATION":99.0075,"RA_OF_ASC_NODE":68.405,"ARG_OF_PERICENTER":256.2612,"MEAN_ANOMALY":103.8516,"EPHEMERIS_TYPE":0,"CLASSIFICATION_TYPE":"U","NORAD_CAT_ID":43010,"ELEMENT_SET_NO":999,"REV_AT_EPOCH":43464,"BSTAR":0.00019784132,"MEAN_MOTION_DOT":3.72e-6,"MEAN_MOTION_DDOT":0},{"OBJECT_NAME":"CZ-4C R/B","OBJECT_ID":"2017-072C","EPOCH":"2026-04-05T04:42:21.586752","MEAN_MOTION":14.58724567,"ECCENTRICITY":0.01228045,"INCLINATION":98.5712,"RA_OF_ASC_NODE":200.836,"ARG_OF_PERICENTER":17.2816,"MEAN_ANOMALY":343.2506,"EPHEMERIS_TYPE":0,"CLASSIFICATION_TYPE":"U","NORAD_CAT_ID":43012,"ELEMENT_SET_NO":999,"REV_AT_EPOCH":44599,"BSTAR":0.00011679619,"MEAN_MOTION_DOT":5.48e-6,"MEAN_MOTION_DDOT":0},{"OBJECT_NAME":"NOAA 20 (JPSS-1)","OBJECT_ID":"2017-073A","EPOCH":"2026-04-05T06:14:47.668416","MEAN_MOTION":14.19543353,"ECCENTRICITY":0.00020443,"INCLINATION":98.7725,"RA_OF_ASC_NODE":35.3884,"ARG_OF_PERICENTER":101.7994,"MEAN_ANOMALY":258.3412,"EPHEMERIS_TYPE":0,"CLASSIFICATION_TYPE":"U","NORAD_CAT_ID":43013,"ELEMENT_SET_NO":999,"REV_AT_EPOCH":43412,"BSTAR":7.3658953e-5,"MEAN_MOTION_DOT":1.11e-6,"MEAN_MOTION_DDOT":0},{"OBJECT_NAME":"MAKERSAT 0","OBJECT_ID":"2017-073D","EPOCH":"2026-04-04T15:05:31.752672","MEAN_MOTION":15.29050188,"ECCENTRICITY":0.011433,"INCLINATION":97.4725,"RA_OF_ASC_NODE":336.7098,"ARG_OF_PERICENTER":173.2922,"MEAN_ANOMALY":186.9882,"EPHEMERIS_TYPE":0,"CLASSIFICATION_TYPE":"U","NORAD_CAT_ID":43016,"ELEMENT_SET_NO":999,"REV_AT_EPOCH":45521,"BSTAR":0.00089224,"MEAN_MOTION_DOT":0.00030693,"MEAN_MOTION_DDOT":0},{"OBJECT_NAME":"RADFXSAT (FOX-1B)","OBJECT_ID":"2017-073E","EPOCH":"2026-04-05T05:08:38.077440","MEAN_MOTION":15.11449824,"ECCENTRICITY":0.01529045,"INCLINATION":97.4806,"RA_OF_ASC_NODE":323.9554,"ARG_OF_PERICENTER":219.8739,"MEAN_ANOMALY":139.118,"EPHEMERIS_TYPE":0,"CLASSIFICATION_TYPE":"U","NORAD_CAT_ID":43017,"ELEMENT_SET_NO":999,"REV_AT_EPOCH":45436,"BSTAR":0.00046995974,"MEAN_MOTION_DOT":0.00010483,"MEAN_MOTION_DDOT":0}]
